{
  "type": "FeatureCollection",
  "features": [
    {
      "type": "Feature",
      "properties": {
        "norad_id": 66593,
        "name": "STARLINK-36031",
        "group": "last-30-days",
        "lat": -10.660540311984338,
        "lon": -147.49681615775464,
        "alt_km": 373.994657067582,
        "timestamp": "2025-12-07T09:35:08.571213+00:00",
        "meta_object_name": "STARLINK-36031",
        "meta_object_id": "2025-270F",
        "meta_epoch": "2025-12-06T22:00:01.999584",
        "meta_mean_motion": 15.6715629,
        "meta_eccentricity": 0.00013028,
        "meta_inclination": 42.9989,
        "meta_ra_of_asc_node": 227.0485,
        "meta_arg_of_pericenter": 266.325,
        "meta_mean_anomaly": 233.1861,
        "meta_ephemeris_type": 0,
        "meta_classification_type": "U",
        "meta_norad_cat_id": 66593,
        "meta_element_set_no": 999,
        "meta_rev_at_epoch": 346,
        "meta_bstar": -0.020756533,
        "meta_mean_motion_dot": -0.02011992,
        "meta_mean_motion_ddot": 0,
        "tle_line1": "1 66593U 25270F   25340.91668981 -.02011992  00000+0 -20757-1 0  9994",
        "tle_line2": "2 66593  42.9989 227.0485 0001302 266.3250 233.1861 15.67156290  3469"
      },
      "geometry": {
        "type": "Point",
        "coordinates": [
          -147.49681615775464,
          -10.660540311984338
        ]
      }
    },
    {
      "type": "Feature",
      "properties": {
        "norad_id": 66594,
        "name": "STARLINK-36032",
        "group": "last-30-days",
        "lat": -9.376330337585772,
        "lon": -146.05366098058133,
        "alt_km": 373.9003596849061,
        "timestamp": "2025-12-07T09:35:08.571223+00:00",
        "meta_object_name": "STARLINK-36032",
        "meta_object_id": "2025-270G",
        "meta_epoch": "2025-12-06T22:00:01.999584",
        "meta_mean_motion": 15.67152844,
        "meta_eccentricity": 0.00012289,
        "meta_inclination": 42.9991,
        "meta_ra_of_asc_node": 227.044,
        "meta_arg_of_pericenter": 265.9737,
        "meta_mean_anomaly": 235.4566,
        "meta_ephemeris_type": 0,
        "meta_classification_type": "U",
        "meta_norad_cat_id": 66594,
        "meta_element_set_no": 999,
        "meta_rev_at_epoch": 320,
        "meta_bstar": -0.020681878,
        "meta_mean_motion_dot": -0.02005328,
        "meta_mean_motion_ddot": 0,
        "tle_line1": "1 66594U 25270G   25340.91668981 -.02005328  00000+0 -20682-1 0  9998",
        "tle_line2": "2 66594  42.9991 227.0440 0001228 265.9737 235.4566 15.67152844  3206"
      },
      "geometry": {
        "type": "Point",
        "coordinates": [
          -146.05366098058133,
          -9.376330337585772
        ]
      }
    },
    {
      "type": "Feature",
      "properties": {
        "norad_id": 66595,
        "name": "STARLINK-35711",
        "group": "last-30-days",
        "lat": -8.088985829353431,
        "lon": -144.62535175418682,
        "alt_km": 373.7720372463318,
        "timestamp": "2025-12-07T09:35:08.571233+00:00",
        "meta_object_name": "STARLINK-35711",
        "meta_object_id": "2025-270H",
        "meta_epoch": "2025-12-06T22:00:01.999584",
        "meta_mean_motion": 15.67155256,
        "meta_eccentricity": 0.00012804,
        "meta_inclination": 42.9989,
        "meta_ra_of_asc_node": 227.0385,
        "meta_arg_of_pericenter": 266.8928,
        "meta_mean_anomaly": 236.454,
        "meta_ephemeris_type": 0,
        "meta_classification_type": "U",
        "meta_norad_cat_id": 66595,
        "meta_element_set_no": 999,
        "meta_rev_at_epoch": 357,
        "meta_bstar": -0.020752659,
        "meta_mean_motion_dot": -0.02011569,
        "meta_mean_motion_ddot": 0,
        "tle_line1": "1 66595U 25270H   25340.91668981 -.02011569  00000+0 -20753-1 0  9992",
        "tle_line2": "2 66595  42.9989 227.0385 0001280 266.8928 236.4540 15.67155256  3575"
      },
      "geometry": {
        "type": "Point",
        "coordinates": [
          -144.62535175418682,
          -8.088985829353431
        ]
      }
    },
    {
      "type": "Feature",
      "properties": {
        "norad_id": 66596,
        "name": "STARLINK-35811",
        "group": "last-30-days",
        "lat": -6.793770814728028,
        "lon": -143.201866004773,
        "alt_km": 373.6510020151718,
        "timestamp": "2025-12-07T09:35:08.571244+00:00",
        "meta_object_name": "STARLINK-35811",
        "meta_object_id": "2025-270J",
        "meta_epoch": "2025-12-06T22:00:01.999584",
        "meta_mean_motion": 15.67153723,
        "meta_eccentricity": 0.00012294,
        "meta_inclination": 42.9988,
        "meta_ra_of_asc_node": 227.0341,
        "meta_arg_of_pericenter": 266.9444,
        "meta_mean_anomaly": 238.3193,
        "meta_ephemeris_type": 0,
        "meta_classification_type": "U",
        "meta_norad_cat_id": 66596,
        "meta_element_set_no": 999,
        "meta_rev_at_epoch": 357,
        "meta_bstar": -0.020691234,
        "meta_mean_motion_dot": -0.02006189,
        "meta_mean_motion_ddot": 0,
        "tle_line1": "1 66596U 25270J   25340.91668981 -.02006189  00000+0 -20691-1 0  9996",
        "tle_line2": "2 66596  42.9988 227.0341 0001229 266.9444 238.3193 15.67153723  3576"
      },
      "geometry": {
        "type": "Point",
        "coordinates": [
          -143.201866004773,
          -6.793770814728028
        ]
      }
    },
    {
      "type": "Feature",
      "properties": {
        "norad_id": 66597,
        "name": "STARLINK-35820",
        "group": "last-30-days",
        "lat": -5.495586895647508,
        "lon": -141.78803541192792,
        "alt_km": 373.5636100482925,
        "timestamp": "2025-12-07T09:35:08.571254+00:00",
        "meta_object_name": "STARLINK-35820",
        "meta_object_id": "2025-270K",
        "meta_epoch": "2025-12-06T22:00:01.999584",
        "meta_mean_motion": 15.67151848,
        "meta_eccentricity": 0.00012718,
        "meta_inclination": 42.9987,
        "meta_ra_of_asc_node": 227.029,
        "meta_arg_of_pericenter": 265.3268,
        "meta_mean_anomaly": 241.8555,
        "meta_ephemeris_type": 0,
        "meta_classification_type": "U",
        "meta_norad_cat_id": 66597,
        "meta_element_set_no": 999,
        "meta_rev_at_epoch": 357,
        "meta_bstar": -0.020676261,
        "meta_mean_motion_dot": -0.02004811,
        "meta_mean_motion_ddot": 0,
        "tle_line1": "1 66597U 25270K   25340.91668981 -.02004811  00000+0 -20676-1 0  9990",
        "tle_line2": "2 66597  42.9987 227.0290 0001271 265.3268 241.8555 15.67151848  3570"
      },
      "geometry": {
        "type": "Point",
        "coordinates": [
          -141.78803541192792,
          -5.495586895647508
        ]
      }
    },
    {
      "type": "Feature",
      "properties": {
        "norad_id": 66598,
        "name": "STARLINK-35981",
        "group": "last-30-days",
        "lat": -4.195862827330294,
        "lon": -140.38228146694024,
        "alt_km": 373.4912800613838,
        "timestamp": "2025-12-07T09:35:08.571264+00:00",
        "meta_object_name": "STARLINK-35981",
        "meta_object_id": "2025-270L",
        "meta_epoch": "2025-12-06T22:00:01.999584",
        "meta_mean_motion": 15.67154713,
        "meta_eccentricity": 0.00012783,
        "meta_inclination": 42.9988,
        "meta_ra_of_asc_node": 227.0239,
        "meta_arg_of_pericenter": 263.496,
        "meta_mean_anomaly": 245.6008,
        "meta_ephemeris_type": 0,
        "meta_classification_type": "U",
        "meta_norad_cat_id": 66598,
        "meta_element_set_no": 999,
        "meta_rev_at_epoch": 330,
        "meta_bstar": -0.020729732,
        "meta_mean_motion_dot": -0.02009577,
        "meta_mean_motion_ddot": 0,
        "tle_line1": "1 66598U 25270L   25340.91668981 -.02009577  00000+0 -20730-1 0  9996",
        "tle_line2": "2 66598  42.9988 227.0239 0001278 263.4960 245.6008 15.67154713  3300"
      },
      "geometry": {
        "type": "Point",
        "coordinates": [
          -140.38228146694024,
          -4.195862827330294
        ]
      }
    },
    {
      "type": "Feature",
      "properties": {
        "norad_id": 66599,
        "name": "STARLINK-35930",
        "group": "last-30-days",
        "lat": -2.8904378756497695,
        "lon": -138.97673097750263,
        "alt_km": 373.30936939661296,
        "timestamp": "2025-12-07T09:35:08.571277+00:00",
        "meta_object_name": "STARLINK-35930",
        "meta_object_id": "2025-270M",
        "meta_epoch": "2025-12-06T22:00:01.999584",
        "meta_mean_motion": 15.67153534,
        "meta_eccentricity": 0.00012839,
        "meta_inclination": 42.9988,
        "meta_ra_of_asc_node": 227.0199,
        "meta_arg_of_pericenter": 265.439,
        "meta_mean_anomaly": 245.5752,
        "meta_ephemeris_type": 0,
        "meta_classification_type": "U",
        "meta_norad_cat_id": 66599,
        "meta_element_set_no": 999,
        "meta_rev_at_epoch": 346,
        "meta_bstar": -0.02068665,
        "meta_mean_motion_dot": -0.02005827,
        "meta_mean_motion_ddot": 0,
        "tle_line1": "1 66599U 25270M   25340.91668981 -.02005827  00000+0 -20687-1 0  9992",
        "tle_line2": "2 66599  42.9988 227.0199 0001283 265.4390 245.5752 15.67153534  3463"
      },
      "geometry": {
        "type": "Point",
        "coordinates": [
          -138.97673097750263,
          -2.8904378756497695
        ]
      }
    }
  ]
}